GLOBALSTAR M075         
1 37192U 10054E   24208.62820976 -.00000082  00000+0  11911-3 0  9994
2 37192  51.9950  92.7931 0000622  58.7000 316.5950 12.62262107634892
GLOBALSTAR M073         
1 37193U 10054F   24208.47056987 -.00000094  00000+0  53077-4 0  9994
2 37193  52.0083   6.8443 0000845  83.8200 293.7960 12.62267341636708
GLOBALSTAR M083         
1 37739U 11033A   24208.57492977 -.00000082  00000+0  11998-3 0  9994
2 37739  51.9877 315.7027 0000553 130.1100 303.5729 12.62262712605733
GLOBALSTAR M088         
1 37740U 11033B   24208.81052606 -.00000099  00000+0  29256-4 0  9999
2 37740  51.9704 220.7493 0000158 213.2436 331.7940 12.62265624601595
GLOBALSTAR M091         
1 37741U 11033C   24208.42375736 -.00000091  00000+0  71029-4 0  9996
2 37741  51.9971 184.9008 0000204 257.4348 267.6278 12.62264992602048
GLOBALSTAR M085         
1 37742U 11033D   24208.06032104 -.00000075  00000+0  16204-3 0  9991
2 37742  51.9861 137.3323 0000247  21.7623 352.4188 12.62263668602518
GLOBALSTAR M081         
1 37743U 11033E   24208.34818186 -.00000082  00000+0  12120-3 0  9996
2 37743  51.9950 139.0425 0000443 359.6724 122.6196 12.62267132602698
GLOBALSTAR M089         
1 37744U 11033F   24208.76633435 -.00000079  00000+0  13959-3 0  9992
2 37744  51.9931  92.0613 0000984  48.6890 353.1882 12.62266392603842
